#aV2011 10  4  0  0   .00000000      96 DD+AD WGS84 FIT  NGA
## 1656 172800.00000000   900.00000000 55838  .0000000000000
+   31     1  2  3  4  5  6  7  8  9 10 11 12 13 14 15 16 17
+         18 19 20 21 22 23 25 26 27 28 29 30 31 32  0  0  0
+          0  0  0  0  0  0  0  0  0  0  0  0  0  0  0  0  0
+          0  0  0  0  0  0  0  0  0  0  0  0  0  0  0  0  0
+          0  0  0  0  0  0  0  0  0  0  0  0  0  0  0  0  0
++         0  0  0  0  0  0  0  0  0  0  0  0  0  0  0  0  0
++         0  0  0  0  0  0  0  0  0  0  0  0  0  0  0  0  0
++         0  0  0  0  0  0  0  0  0  0  0  0  0  0  0  0  0
++         0  0  0  0  0  0  0  0  0  0  0  0  0  0  0  0  0
++         0  0  0  0  0  0  0  0  0  0  0  0  0  0  0  0  0
%c cc cc ccc ccc cccc cccc cccc cccc ccccc ccccc ccccc ccccc
%c cc cc ccc ccc cccc cccc cccc cccc ccccc ccccc ccccc ccccc
%f  0.0000000  0.000000000  0.00000000000  0.000000000000000
%f  0.0000000  0.000000000  0.00000000000  0.000000000000000
%i    0    0    0    0      0      0      0      0         0
%i    0    0    0    0      0      0      0      0         0
/*      NGA, ST. LOUIS,MO.                                  
/*   EPHEMERIS COMPUTED FROM  3 DAYS OF DATA                
/* CCCCCCCCCCCCCCCCCCCCCCCCCCCCCCCCCCCCCCCCCCCCCCCCCCCCCCCCC
/* CCCCCCCCCCCCCCCCCCCCCCCCCCCCCCCCCCCCCCCCCCCCCCCCCCCCCCCCC
*  2011 10  4 23 45   .00000000                                                 
P  1   9274.972312  13668.253642 -20810.470007     -5.343036                    
V  1 -26173.794942   3540.026771  -9345.011170      -.015461                    
P  2  14529.401035 -14127.329778  16979.698297    359.283402                    
V  2  21818.090347    -19.651575 -19260.506256       .018039                    
P  3 -10326.112256  23926.814416   3771.373642    777.005523                    
V  3  -2288.348483  -6352.232698  30736.048137       .050166                    
P  4  25397.867641  -6297.366124   5285.719488    250.876684                    
V  4   7221.005914   2497.572545 -30072.490668       .112991                    
P  5   3963.025610 -17891.685236  19172.621496   -227.322256                    
V  5  15413.576245  19018.063616  14667.744349      -.051813                    
P  6 -14388.330998  20771.461231   7893.444077    -56.041771                    
V  6    360.581199 -10542.359103  29150.143001       .078534                    
P  7  22522.054483   6698.130651  12627.920754     30.077497                    
V  7 -15696.830842   3075.223105  26153.804270       .019746                    
P  8  26596.077441   2026.393889   3354.854576       .046013                    
V  8  -4115.593567   1167.896626  31791.743407       .000191                    
P  9  -4835.375201 -14397.297074 -22338.235935    109.694862                    
V  9  26787.640887  -3204.779118  -3852.662838       .024202                    
P 10  17097.288215   -644.770597  20183.549851    -15.240110                    
V 10  13880.300278  22098.728111 -10550.606062      -.011480                    
P 11   3286.086064  16725.031759 -20696.283548   -191.815542                    
V 11 -24486.992025   8379.643995   3281.539176      -.034987                    
P 12 -11215.071857 -23450.480598  -5872.843629     26.500031                    
V 12   5913.528908   4945.787924 -30833.076335       .023511                    
P 13   9498.616035  12039.497263  21539.356774    248.261423                    
V 13 -14002.837227  23797.148720  -7161.706712      -.018924                    
P 14 -17775.590696   8135.464991 -17735.108162    175.334797                    
V 14   9502.540376 -20859.227078 -19049.958423       .017508                    
P 15   2394.351405 -24235.862669 -10371.334924   -103.752170                    
V 15   7999.398396 -10992.742232  27684.666618       .013928                    
P 16  -3186.713409  18311.956746  18866.641360   -201.532662                    
V 16 -14286.983305 -19320.412063  16635.298579      -.021559                    
P 17  17808.454149  -8042.998824 -17733.046859    172.243192                    
V 17  -8585.598778  21300.419832 -18367.425723      -.016949                    
P 18 -19581.059385 -14652.258526 -10459.515678    160.557222                    
V 18  -5282.214091 -13016.368964  26873.716251       .018402                    
P 19  -6664.189662  24038.228247  -8597.902841   -190.843563                    
V 19  -7955.608892   8126.502682  29336.410054      -.040319                    
P 20  12882.997561  22747.288169  -5035.652152     53.889956                    
V 20  -6618.982910  -2756.035926 -30184.896702       .005591                    
P 21 -24718.827278  -5042.804317   9653.462613   -175.796304                    
V 21  11226.428513  -3749.214881  27466.335636      -.024679                    
P 22 -18107.704496   -976.975470 -19260.567206    144.108424                    
V 22 -12802.228272 -21442.735322  12891.268607      -.002716                    
P 23   3897.347247  19735.511263  17176.817037    270.597297                    
V 23 -11079.952581  18990.359491 -19686.635502      -.031217                    
P 25 -17833.201451 -19182.341296   4467.132519     21.828520                    
V 25  -1262.791791  -6135.386340 -31168.447032       .017916                    
P 26  12205.212045 -23339.045570  -1086.839841   -179.540308                    
V 26   2372.676946    560.841308  32527.884154      -.130201                    
P 27   1816.512153 -14673.369543 -21384.704193    311.894153                    
V 27  28498.441905  -3384.394968   4971.927183       .038424                    
P 28  18234.901551   5732.298427 -18023.825386     72.884690                    
V 28  11845.180141  20727.938593  17809.155154       .031623                    
P 29 -10330.409229 -12319.212566  21213.523219    245.544846                    
V 29  12673.321450 -23592.215946  -7511.601088       .032548                    
P 30 -20545.239112  -7968.211188  14474.636211     74.769063                    
V 30 -10818.936496 -15819.130285 -23456.684890      -.076744                    
P 31 -23740.094698   8141.244401   9221.514369    150.829429                    
V 31 -11442.575888   -849.651557 -29138.471599       .053880                    
P 32   4986.667979  23797.316665 -10931.572601   -340.034410                    
V 32  -9206.878732 -10986.419625 -27022.108690      -.063999                    
EOF
